STARLINK-30903          
1 58355U 23177E   26064.25003472  .02296268  00000+0  86444-1 0  9998
2 58355  43.0009  15.4142 0002131 306.2298 337.6174 15.23035675  5775
STARLINK-30905          
1 58356U 23177F   26064.25003472  .02269669  00000+0  83622-1 0  9999
2 58356  43.0009  15.1706 0001500 282.8106  88.8315 15.23803005  5788
STARLINK-30842          
1 58357U 23177G   26064.25003472  .00090076  00000+0  36028-2 0  9991
2 58357  43.0025   0.8015 0000959 252.3524  11.4614 15.24089428  5728
STARLINK-30858          
1 58358U 23177H   26064.25003472  .01314224  00000+0  49285-1 0  9995
2 58358  43.0021  15.2526 0001728 277.4503  75.3797 15.23887096  5730
STARLINK-30878          
1 58359U 23177J   26064.26959207  .00000369  00000+0  42385-4 0  9991
2 58359  43.0030  15.3660 0001175 274.5281  85.5427 15.02539330127558
STARLINK-30897          
1 58360U 23177K   26064.18436453  .00000758  00000+0  71211-4 0  9999
2 58360  43.0033  16.4473 0001120 267.2426  92.8288 15.02536489127533
STARLINK-30885          
1 58361U 23177L   26064.25003472  .01354913  00000+0  53591-1 0  9993
2 58361  43.0018  15.3224 0001818 277.1256  45.9870 15.21995162  5724
STARLINK-30890          
1 58362U 23177M   26064.25003472  .01325416  00000+0  52521-1 0  9992
2 58362  43.0018  15.2726 0001730 278.8360  64.6857 15.21994568  5685
STARLINK-30909          
1 58363U 23177N   26064.25003472  .01309234  00000+0  52250-1 0  9992
2 58363  43.0017  15.2656 0001716 280.2311  65.9624 15.21786075  5637
STARLINK-30904          
1 58364U 23177P   26064.21854012  .00040084  00000+0  28126-2 0  9993
2 58364  43.0029  14.1346 0002342 192.5114 167.5671 15.04524310127568
STARLINK-30918          
1 58365U 23177Q   26064.25003472  .02582304  00000+0  11462+0 0  9994
2 58365  43.0008  15.4252 0002196 283.9236 351.0559 15.16897388  5788
STARLINK-30892          
1 58366U 23177R   26064.25003472  .01367573  00000+0  57438-1 0  9998
2 58366  43.0015  15.3257 0001843 276.1901  43.5878 15.19908135  5639
STARLINK-30891          
1 58367U 23177S   26064.25003472  .02441226  00000+0  11139+0 0  9994
2 58367  43.0012  15.4017 0002223 281.9483   1.7794 15.16148884  5787
STARLINK-30889          
1 58368U 23177T   26064.25003472  .02411910  00000+0  11473+0 0  9993
2 58368  43.0007  15.5014 0002190 263.1707 339.6753 15.14718241  5780
STARLINK-30870          
1 58369U 23177U   26064.25003472  .02552291  00000+0  13145+0 0  9990
2 58369  42.9999  15.5408 0001662 283.7169 303.1536 15.12263593  5721
STARLINK-30888          
1 58370U 23177V   26064.25003472  .00147577  00000+0  54330-2 0  9991
2 58370  43.0008  15.2423 0002260 264.1389  85.1391 15.26551147  5773
