[{"OBJECT_NAME":"STARLINK-30903","OBJECT_ID":"2023-177E","EPOCH":"2026-03-05T06:00:02.999808","MEAN_MOTION":15.23035675,"ECCENTRICITY":0.00021317,"INCLINATION":43.0009,"RA_OF_ASC_NODE":15.4142,"ARG_OF_PERICENTER":306.2298,"MEAN_ANOMALY":337.6174,"EPHEMERIS_TYPE":0,"CLASSIFICATION_TYPE":"U","NORAD_CAT_ID":58355,"ELEMENT_SET_NO":999,"REV_AT_EPOCH":577,"BSTAR":0.086444461,"MEAN_MOTION_DOT":0.02296268,"MEAN_MOTION_DDOT":0},{"OBJECT_NAME":"STARLINK-30905","OBJECT_ID":"2023-177F","EPOCH":"2026-03-05T06:00:02.999808","MEAN_MOTION":15.23803005,"ECCENTRICITY":0.00015002,"INCLINATION":43.0009,"RA_OF_ASC_NODE":15.1706,"ARG_OF_PERICENTER":282.8106,"MEAN_ANOMALY":88.8315,"EPHEMERIS_TYPE":0,"CLASSIFICATION_TYPE":"U","NORAD_CAT_ID":58356,"ELEMENT_SET_NO":999,"REV_AT_EPOCH":578,"BSTAR":0.083621681,"MEAN_MOTION_DOT":0.02269669,"MEAN_MOTION_DDOT":0},{"OBJECT_NAME":"STARLINK-30842","OBJECT_ID":"2023-177G","EPOCH":"2026-03-05T06:00:02.999808","MEAN_MOTION":15.24089428,"ECCENTRICITY":9.596e-5,"INCLINATION":43.0025,"RA_OF_ASC_NODE":0.8015,"ARG_OF_PERICENTER":252.3524,"MEAN_ANOMALY":11.4614,"EPHEMERIS_TYPE":0,"CLASSIFICATION_TYPE":"U","NORAD_CAT_ID":58357,"ELEMENT_SET_NO":999,"REV_AT_EPOCH":572,"BSTAR":0.0036027593,"MEAN_MOTION_DOT":0.00090076,"MEAN_MOTION_DDOT":0},{"OBJECT_NAME":"STARLINK-30858","OBJECT_ID":"2023-177H","EPOCH":"2026-03-05T06:00:02.999808","MEAN_MOTION":15.23887096,"ECCENTRICITY":0.00017281,"INCLINATION":43.0021,"RA_OF_ASC_NODE":15.2526,"ARG_OF_PERICENTER":277.4503,"MEAN_ANOMALY":75.3797,"EPHEMERIS_TYPE":0,"CLASSIFICATION_TYPE":"U","NORAD_CAT_ID":58358,"ELEMENT_SET_NO":999,"REV_AT_EPOCH":573,"BSTAR":0.049284838,"MEAN_MOTION_DOT":0.01314224,"MEAN_MOTION_DDOT":0},{"OBJECT_NAME":"STARLINK-30878","OBJECT_ID":"2023-177J","EPOCH":"2026-03-05T06:28:12.754848","MEAN_MOTION":15.0253933,"ECCENTRICITY":0.0001175,"INCLINATION":43.003,"RA_OF_ASC_NODE":15.366,"ARG_OF_PERICENTER":274.5281,"MEAN_ANOMALY":85.5427,"EPHEMERIS_TYPE":0,"CLASSIFICATION_TYPE":"U","NORAD_CAT_ID":58359,"ELEMENT_SET_NO":999,"REV_AT_EPOCH":12755,"BSTAR":4.2384756e-5,"MEAN_MOTION_DOT":3.69e-6,"MEAN_MOTION_DDOT":0},{"OBJECT_NAME":"STARLINK-30897","OBJECT_ID":"2023-177K","EPOCH":"2026-03-05T04:25:29.095392","MEAN_MOTION":15.02536489,"ECCENTRICITY":0.00011202,"INCLINATION":43.0033,"RA_OF_ASC_NODE":16.4473,"ARG_OF_PERICENTER":267.2426,"MEAN_ANOMALY":92.8288,"EPHEMERIS_TYPE":0,"CLASSIFICATION_TYPE":"U","NORAD_CAT_ID":58360,"ELEMENT_SET_NO":999,"REV_AT_EPOCH":12753,"BSTAR":7.1210818e-5,"MEAN_MOTION_DOT":7.58e-6,"MEAN_MOTION_DDOT":0},{"OBJECT_NAME":"STARLINK-30885","OBJECT_ID":"2023-177L","EPOCH":"2026-03-05T06:00:02.999808","MEAN_MOTION":15.21995162,"ECCENTRICITY":0.00018183,"INCLINATION":43.0018,"RA_OF_ASC_NODE":15.3224,"ARG_OF_PERICENTER":277.1256,"MEAN_ANOMALY":45.987,"EPHEMERIS_TYPE":0,"CLASSIFICATION_TYPE":"U","NORAD_CAT_ID":58361,"ELEMENT_SET_NO":999,"REV_AT_EPOCH":572,"BSTAR":0.053590567,"MEAN_MOTION_DOT":0.01354913,"MEAN_MOTION_DDOT":0},{"OBJECT_NAME":"STARLINK-30890","OBJECT_ID":"2023-177M","EPOCH":"2026-03-05T06:00:02.999808","MEAN_MOTION":15.21994568,"ECCENTRICITY":0.000173,"INCLINATION":43.0018,"RA_OF_ASC_NODE":15.2726,"ARG_OF_PERICENTER":278.836,"MEAN_ANOMALY":64.6857,"EPHEMERIS_TYPE":0,"CLASSIFICATION_TYPE":"U","NORAD_CAT_ID":58362,"ELEMENT_SET_NO":999,"REV_AT_EPOCH":568,"BSTAR":0.052520623,"MEAN_MOTION_DOT":0.01325416,"MEAN_MOTION_DDOT":0},{"OBJECT_NAME":"STARLINK-30909","OBJECT_ID":"2023-177N","EPOCH":"2026-03-05T06:00:02.999808","MEAN_MOTION":15.21786075,"ECCENTRICITY":0.00017163,"INCLINATION":43.0017,"RA_OF_ASC_NODE":15.2656,"ARG_OF_PERICENTER":280.2311,"MEAN_ANOMALY":65.9624,"EPHEMERIS_TYPE":0,"CLASSIFICATION_TYPE":"U","NORAD_CAT_ID":58363,"ELEMENT_SET_NO":999,"REV_AT_EPOCH":563,"BSTAR":0.052249886,"MEAN_MOTION_DOT":0.01309234,"MEAN_MOTION_DDOT":0},{"OBJECT_NAME":"STARLINK-30904","OBJECT_ID":"2023-177P","EPOCH":"2026-03-05T05:14:41.866368","MEAN_MOTION":15.0452431,"ECCENTRICITY":0.00023425,"INCLINATION":43.0029,"RA_OF_ASC_NODE":14.1346,"ARG_OF_PERICENTER":192.5114,"MEAN_ANOMALY":167.5671,"EPHEMERIS_TYPE":0,"CLASSIFICATION_TYPE":"U","NORAD_CAT_ID":58364,"ELEMENT_SET_NO":999,"REV_AT_EPOCH":12756,"BSTAR":0.0028125717,"MEAN_MOTION_DOT":0.00040084,"MEAN_MOTION_DDOT":0},{"OBJECT_NAME":"STARLINK-30918","OBJECT_ID":"2023-177Q","EPOCH":"2026-03-05T06:00:02.999808","MEAN_MOTION":15.16897388,"ECCENTRICITY":0.00021968,"INCLINATION":43.0008,"RA_OF_ASC_NODE":15.4252,"ARG_OF_PERICENTER":283.9236,"MEAN_ANOMALY":351.0559,"EPHEMERIS_TYPE":0,"CLASSIFICATION_TYPE":"U","NORAD_CAT_ID":58365,"ELEMENT_SET_NO":999,"REV_AT_EPOCH":578,"BSTAR":0.11461592,"MEAN_MOTION_DOT":0.02582304,"MEAN_MOTION_DDOT":0},{"OBJECT_NAME":"STARLINK-30892","OBJECT_ID":"2023-177R","EPOCH":"2026-03-05T06:00:02.999808","MEAN_MOTION":15.19908135,"ECCENTRICITY":0.00018435,"INCLINATION":43.0015,"RA_OF_ASC_NODE":15.3257,"ARG_OF_PERICENTER":276.1901,"MEAN_ANOMALY":43.5878,"EPHEMERIS_TYPE":0,"CLASSIFICATION_TYPE":"U","NORAD_CAT_ID":58366,"ELEMENT_SET_NO":999,"REV_AT_EPOCH":563,"BSTAR":0.057437641,"MEAN_MOTION_DOT":0.01367573,"MEAN_MOTION_DDOT":0},{"OBJECT_NAME":"STARLINK-30891","OBJECT_ID":"2023-177S","EPOCH":"2026-03-05T06:00:02.999808","MEAN_MOTION":15.16148884,"ECCENTRICITY":0.00022239,"INCLINATION":43.0012,"RA_OF_ASC_NODE":15.4017,"ARG_OF_PERICENTER":281.9483,"MEAN_ANOMALY":1.7794,"EPHEMERIS_TYPE":0,"CLASSIFICATION_TYPE":"U","NORAD_CAT_ID":58367,"ELEMENT_SET_NO":999,"REV_AT_EPOCH":578,"BSTAR":0.11138722,"MEAN_MOTION_DOT":0.02441226,"MEAN_MOTION_DDOT":0},{"OBJECT_NAME":"STARLINK-30889","OBJECT_ID":"2023-177T","EPOCH":"2026-03-05T06:00:02.999808","MEAN_MOTION":15.14718241,"ECCENTRICITY":0.00021905,"INCLINATION":43.0007,"RA_OF_ASC_NODE":15.5014,"ARG_OF_PERICENTER":263.1707,"MEAN_ANOMALY":339.6753,"EPHEMERIS_TYPE":0,"CLASSIFICATION_TYPE":"U","NORAD_CAT_ID":58368,"ELEMENT_SET_NO":999,"REV_AT_EPOCH":578,"BSTAR":0.11472958,"MEAN_MOTION_DOT":0.0241191,"MEAN_MOTION_DDOT":0},{"OBJECT_NAME":"STARLINK-30870","OBJECT_ID":"2023-177U","EPOCH":"2026-03-05T06:00:02.999808","MEAN_MOTION":15.12263593,"ECCENTRICITY":0.00016629,"INCLINATION":42.9999,"RA_OF_ASC_NODE":15.5408,"ARG_OF_PERICENTER":283.7169,"MEAN_ANOMALY":303.1536,"EPHEMERIS_TYPE":0,"CLASSIFICATION_TYPE":"U","NORAD_CAT_ID":58369,"ELEMENT_SET_NO":999,"REV_AT_EPOCH":572,"BSTAR":0.13144888,"MEAN_MOTION_DOT":0.02552291,"MEAN_MOTION_DDOT":0},{"OBJECT_NAME":"STARLINK-30888","OBJECT_ID":"2023-177V","EPOCH":"2026-03-05T06:00:02.999808","MEAN_MOTION":15.26551147,"ECCENTRICITY":0.00022603,"INCLINATION":43.0008,"RA_OF_ASC_NODE":15.2423,"ARG_OF_PERICENTER":264.1389,"MEAN_ANOMALY":85.1391,"EPHEMERIS_TYPE":0,"CLASSIFICATION_TYPE":"U","NORAD_CAT_ID":58370,"ELEMENT_SET_NO":999,"REV_AT_EPOCH":577,"BSTAR":0.0054329581,"MEAN_MOTION_DOT":0.00147577,"MEAN_MOTION_DDOT":0}]
